norad_id,name,regime,epoch,line1,line2,inclination,eccentricity,mean_motion,raan,arg_pericenter,mean_anomaly
19789,COSMOS 1998,LEO,25155.63021862,1 19789U 89009E   25155.63021862  .00000005  00000-0 -31442-4 0    14,2 19789  82.6118 212.4907 0017098  64.5814 295.7046 12.64921322676284,82.6118,0.0017098,12.64921322,212.4907,64.5814,295.7046
19789,COSMOS 1998,LEO,25156.18388934,1 19789U 89009E   25156.18388934  .00000004  00000-0 -38693-4 0    15,2 19789  82.6117 212.1374 0017085  63.3935 296.8906 12.64921321676359,82.6117,0.0017085,12.64921321,212.1374,63.3935,296.8906
19789,COSMOS 1998,LEO,25156.65846426,1 19789U 89009E   25156.65846426  .00000007  00000-0 -21890-4 0    16,2 19789  82.6117 211.8346 0017067  62.3716 297.9107 12.64921313676413,82.6117,0.0017067,12.64921313,211.8346,62.3716,297.9107
19789,COSMOS 1998,LEO,25157.21213492,1 19789U 89009E   25157.21213492  .00000012  00000-0  70484-5 0    19,2 19789  82.6116 211.4813 0017049  61.1759 299.1043 12.64921335676485,82.6116,0.0017049,12.64921335,211.4813,61.1759,299.1043
19789,COSMOS 1998,LEO,25157.84490141,1 19789U 89009E   25157.84490141  .00000018  00000-0  37516-4 0    10,2 19789  82.6116 211.0775 0017033  59.8043 300.4734 12.64921338676566,82.6116,0.0017033,12.64921338,211.0775,59.8043,300.4734
19789,COSMOS 1998,LEO,25158.55676367,1 19789U 89009E   25158.55676367  .00000022  00000-0  58689-4 0    14,2 19789  82.6115 210.6233 0017007  58.2599 302.0148 12.64921358676658,82.6115,0.0017007,12.64921358,210.6233,58.2599,302.0148
19789,COSMOS 1998,LEO,25158.63585947,1 19789U 89009E   25158.63585947  .00000021  00000-0  56433-4 0  2988,2 19789  82.6115 210.5728 0017003  58.0850 302.1894 12.64921360676843,82.6115,0.0017003,12.6492136,210.5728,58.085,302.1894
19789,COSMOS 1998,LEO,25158.87314690,1 19789U 89009E   25158.87314690  .00000023  00000-0  65146-4 0    14,2 19789  82.6115 210.4214 0016999  57.5805 302.6929 12.64921358676693,82.6115,0.0016999,12.64921358,210.4214,57.5805,302.6929
19789,COSMOS 1998,LEO,25159.18953011,1 19789U 89009E   25159.18953011  .00000024  00000-0  70692-4 0    18,2 19789  82.6115 210.2195 0016991  56.8963 303.3758 12.64921372676737,82.6115,0.0016991,12.64921372,210.2195,56.8963,303.3758
19789,COSMOS 1998,LEO,25159.58500913,1 19789U 89009E   25159.58500913  .00000028  00000-0  94332-4 0    12,2 19789  82.6114 209.9671 0016974  56.0349 304.2354 12.64921373676789,82.6114,0.0016974,12.64921373,209.9671,56.0349,304.2354
19789,COSMOS 1998,LEO,25160.61325440,1 19789U 89009E   25160.61325440  .00000036  00000-0  13806-3 0    13,2 19789  82.6114 209.3110 0016943  53.8189 306.4468 12.64921448676912,82.6114,0.0016943,12.64921448,209.311,53.8189,306.4468
19789,COSMOS 1998,LEO,25161.56240382,1 19789U 89009E   25161.56240382  .00000041  00000-0  16557-3 0    11,2 19789  82.6113 208.7054 0016916  51.7529 308.5083 12.64921518677034,82.6113,0.0016916,12.64921518,208.7054,51.7529,308.5083
19789,COSMOS 1998,LEO,25161.87878695,1 19789U 89009E   25161.87878695  .00000041  00000-0  16231-3 0    18,2 19789  82.6113 208.5035 0016908  51.0654 309.1942 12.64921518677079,82.6113,0.0016908,12.64921518,208.5035,51.0654,309.1942
19789,COSMOS 1998,LEO,25162.59064890,1 19789U 89009E   25162.59064890  .00000040  00000-0  15815-3 0    18,2 19789  82.6112 208.0492 0016880  49.4854 310.7706 12.64921557677161,82.6112,0.001688,12.64921557,208.0492,49.4854,310.7706
19789,COSMOS 1998,LEO,25162.82793621,1 19789U 89009E   25162.82793621  .00000039  00000-0  15178-3 0    15,2 19789  82.6112 207.8978 0016875  48.9638 311.2910 12.64921566677191,82.6112,0.0016875,12.64921566,207.8978,48.9638,311.291
19789,COSMOS 1998,LEO,25163.53979809,1 19789U 89009E   25163.53979809  .00000038  00000-0  14748-3 0  3001,2 19789  82.6111 207.4436 0016848  47.4167 312.8344 12.64921627677462,82.6111,0.0016848,12.64921627,207.4436,47.4167,312.8344
19789,COSMOS 1998,LEO,25163.61889385,1 19789U 89009E   25163.61889385  .00000037  00000-0  14276-3 0    12,2 19789  82.6111 207.3931 0016846  47.2410 313.0097 12.64921633677294,82.6111,0.0016846,12.64921633,207.3931,47.241,313.0097
19789,COSMOS 1998,LEO,25164.56804291,1 19789U 89009E   25164.56804291  .00000038  00000-0  14884-3 0    16,2 19789  82.6110 206.7874 0016810  45.1817 315.0638 12.64921706677419,82.611,0.001681,12.64921706,206.7874,45.1817,315.0638
19789,COSMOS 1998,LEO,25164.80533017,1 19789U 89009E   25164.80533017  .00000037  00000-0  13894-3 0    17,2 19789  82.6110 206.6360 0016804  44.6639 315.5804 12.64921712677447,82.611,0.0016804,12.64921712,206.636,44.6639,315.5804
19789,COSMOS 1998,LEO,25165.51719195,1 19789U 89009E   25165.51719195  .00000030  00000-0  10164-3 0    19,2 19789  82.6109 206.1817 0016775  43.1202 317.1201 12.64921729677531,82.6109,0.0016775,12.64921729,206.1817,43.1202,317.1201
19789,COSMOS 1998,LEO,25165.59628770,1 19789U 89009E   25165.59628770  .00000027  00000-0  87227-4 0    16,2 19789  82.6109 206.1312 0016771  42.9428 317.2970 12.64921725677545,82.6109,0.0016771,12.64921725,206.1312,42.9428,317.297
19789,COSMOS 1998,LEO,25166.54543670,1 19789U 89009E   25166.54543670  .00000020  00000-0  48569-4 0    16,2 19789  82.6108 205.5255 0016736  40.8865 319.3479 12.64921736677668,82.6108,0.0016736,12.64921736,205.5255,40.8865,319.3479
19789,COSMOS 1998,LEO,25167.33639425,1 19789U 89009E   25167.33639425  .00000009  00000-0 -11898-4 0    11,2 19789  82.6107 205.0208 0016704  39.1644 321.0654 12.64921672677766,82.6107,0.0016704,12.64921672,205.0208,39.1644,321.0654
19789,COSMOS 1998,LEO,25167.81096871,1 19789U 89009E   25167.81096871  .00000010  00000-0 -66285-5 0    19,2 19789  82.6107 204.7180 0016694  38.1348 322.0922 12.64921705677822,82.6107,0.0016694,12.64921705,204.718,38.1348,322.0922
19789,COSMOS 1998,LEO,25168.83921339,1 19789U 89009E   25168.83921339  .00000012  00000-0  58025-5 0    12,2 19789  82.6105 204.0618 0016661  35.8814 324.3395 12.64921737677953,82.6105,0.0016661,12.64921737,204.0618,35.8814,324.3395
19789,COSMOS 1998,LEO,25169.39288359,1 19789U 89009E   25169.39288359  .00000013  00000-0  11564-4 0    19,2 19789  82.6104 203.7084 0016634  34.6646 325.5527 12.64921734678021,82.6104,0.0016634,12.64921734,203.7084,34.6646,325.5527
19789,COSMOS 1998,LEO,25169.78836227,1 19789U 89009E   25169.78836227  .00000016  00000-0  30917-4 0    11,2 19789  82.6104 203.4560 0016622  33.8012 326.4136 12.64921760678072,82.6104,0.0016622,12.6492176,203.456,33.8012,326.4136
19789,COSMOS 1998,LEO,25170.02564947,1 19789U 89009E   25170.02564947  .00000019  00000-0  42893-4 0  3031,2 19789  82.6103 203.3046 0016612  33.2771 326.9362 12.64921784678289,82.6103,0.0016612,12.64921784,203.3046,33.2771,326.9362
19789,COSMOS 1998,LEO,25170.34203238,1 19789U 89009E   25170.34203238  .00000020  00000-0  49528-4 0    18,2 19789  82.6103 203.1027 0016592  32.5808 327.6305 12.64921795678148,82.6103,0.0016592,12.64921795,203.1027,32.5808,327.6305
19789,COSMOS 1998,LEO,25171.37027695,1 19789U 89009E   25171.37027695  .00000030  00000-0  10379-3 0    15,2 19789  82.6103 202.4465 0016542  30.3176 329.8871 12.64921842678274,82.6103,0.0016542,12.64921842,202.4465,30.3176,329.8871
19789,COSMOS 1998,LEO,25171.84485138,1 19789U 89009E   25171.84485138  .00000034  00000-0  12730-3 0    14,2 19789  82.6102 202.1437 0016527  29.2814 330.9202 12.64921852678337,82.6102,0.0016527,12.64921852,202.1437,29.2814,330.9202
19789,COSMOS 1998,LEO,25172.31942570,1 19789U 89009E   25172.31942570  .00000039  00000-0  15145-3 0    13,2 19789  82.6102 201.8408 0016504  28.2335 331.9649 12.64921892678399,82.6102,0.0016504,12.64921892,201.8408,28.2335,331.9649
19789,COSMOS 1998,LEO,25173.34767021,1 19789U 89009E   25173.34767021  .00000040  00000-0  15620-3 0    13,2 19789  82.6102 201.1846 0016459  25.9403 334.2511 12.64921908678524,82.6102,0.0016459,12.64921908,201.1846,25.9403,334.2511
19789,COSMOS 1998,LEO,25173.82224456,1 19789U 89009E   25173.82224456  .00000042  00000-0  17133-3 0    19,2 19789  82.6102 200.8818 0016438  24.8866 335.3016 12.64921927678586,82.6102,0.0016438,12.64921927,200.8818,24.8866,335.3016
19789,COSMOS 1998,LEO,25174.37591469,1 19789U 89009E   25174.37591469  .00000037  00000-0  14055-3 0    15,2 19789  82.6102 200.5284 0016408  23.6316 336.5527 12.64921880678650,82.6102,0.0016408,12.6492188,200.5284,23.6316,336.5527
19789,COSMOS 1998,LEO,25174.77139322,1 19789U 89009E   25174.77139322  .00000039  00000-0  15351-3 0    17,2 19789  82.6102 200.2761 0016394  22.7504 337.4312 12.64921932678706,82.6102,0.0016394,12.64921932,200.2761,22.7504,337.4312
19789,COSMOS 1998,LEO,25175.32506327,1 19789U 89009E   25175.32506327  .00000036  00000-0  13397-3 0    17,2 19789  82.6102 199.9227 0016371  21.5280 338.6497 12.64921936678778,82.6102,0.0016371,12.64921936,199.9227,21.528,338.6497
19789,COSMOS 1998,LEO,25175.56235043,1 19789U 89009E   25175.56235043  .00000034  00000-0  12710-3 0    13,2 19789  82.6102 199.7713 0016358  20.9848 339.1912 12.64921946678807,82.6102,0.0016358,12.64921946,199.7713,20.9848,339.1912
19789,COSMOS 1998,LEO,25176.35330754,1 19789U 89009E   25176.35330754  .00000032  00000-0  11678-3 0    16,2 19789  82.6102 199.2665 0016322  19.2156 340.9549 12.64921969678904,82.6102,0.0016322,12.64921969,199.2665,19.2156,340.9549
19789,COSMOS 1998,LEO,25176.43240326,1 19789U 89009E   25176.43240326  .00000031  00000-0  11121-3 0  3060,2 19789  82.6102 199.2160 0016318  19.0444 341.1255 12.64921966679092,82.6102,0.0016318,12.64921966,199.216,19.0444,341.1255
19789,COSMOS 1998,LEO,25177.06516889,1 19789U 89009E   25177.06516889  .00000028  00000-0  94861-4 0    11,2 19789  82.6102 198.8122 0016294  17.6358 342.5297 12.64922009678994,82.6102,0.0016294,12.64922009,198.8122,17.6358,342.5297
19789,COSMOS 1998,LEO,25178.01431734,1 19789U 89009E   25178.01431734  .00000021  00000-0  53348-4 0    10,2 19789  82.6101 198.2065 0016249  15.5023 344.6564 12.64922038679116,82.6101,0.0016249,12.64922038,198.2065,15.5023,344.6564
